[{"OBJECT_NAME":"STARLINK-36411","OBJECT_ID":"2026-018V","EPOCH":"2026-03-09T22:00:01.999584","MEAN_MOTION":15.67971657,"ECCENTRICITY":0.00018908,"INCLINATION":97.2839,"RA_OF_ASC_NODE":134.8178,"ARG_OF_PERICENTER":74.0997,"MEAN_ANOMALY":109.8922,"EPHEMERIS_TYPE":0,"CLASSIFICATION_TYPE":"U","NORAD_CAT_ID":67608,"ELEMENT_SET_NO":999,"REV_AT_EPOCH":604,"BSTAR":-0.020003062,"MEAN_MOTION_DOT":-0.01951575,"MEAN_MOTION_DDOT":0},{"OBJECT_NAME":"ELECTRON KICK STAGE R\/B","OBJECT_ID":"2022-113C","EPOCH":"2026-03-09T17:52:10.444512","MEAN_MOTION":15.55580048,"ECCENTRICITY":0.00047816,"INCLINATION":97.4909,"RA_OF_ASC_NODE":143.5752,"ARG_OF_PERICENTER":190.5776,"MEAN_ANOMALY":169.5378,"EPHEMERIS_TYPE":0,"CLASSIFICATION_TYPE":"U","NORAD_CAT_ID":53817,"ELEMENT_SET_NO":999,"REV_AT_EPOCH":19274,"BSTAR":0.0010825537,"MEAN_MOTION_DOT":0.0007464,"MEAN_MOTION_DDOT":0}]
